#aV2011  4 16  0  0   .00000000      96 DD+AD WGS84 FIT  NGA
## 1631 518400.00000000   900.00000000 55667  .0000000000000
+   32     1  2  3  4  5  6  7  8  9 10 11 12 13 14 15 16 17
+         18 19 20 21 22 23 24 25 26 27 28 29 30 31 32  0  0
+          0  0  0  0  0  0  0  0  0  0  0  0  0  0  0  0  0
+          0  0  0  0  0  0  0  0  0  0  0  0  0  0  0  0  0
+          0  0  0  0  0  0  0  0  0  0  0  0  0  0  0  0  0
++         0  0  0  0  0  0  0  0  0  0  0  0  0  0  0  0  0
++         0  0  0  0  0  0  0  0  0  0  0  0  0  0  0  0  0
++         0  0  0  0  0  0  0  0  0  0  0  0  0  0  0  0  0
++         0  0  0  0  0  0  0  0  0  0  0  0  0  0  0  0  0
++         0  0  0  0  0  0  0  0  0  0  0  0  0  0  0  0  0
%c cc cc ccc ccc cccc cccc cccc cccc ccccc ccccc ccccc ccccc
%c cc cc ccc ccc cccc cccc cccc cccc ccccc ccccc ccccc ccccc
%f  0.0000000  0.000000000  0.00000000000  0.000000000000000
%f  0.0000000  0.000000000  0.00000000000  0.000000000000000
%i    0    0    0    0      0      0      0      0         0
%i    0    0    0    0      0      0      0      0         0
/*      NGA, ST. LOUIS,MO.                                  
/*   EPHEMERIS COMPUTED FROM  3 DAYS OF DATA                
/* CCCCCCCCCCCCCCCCCCCCCCCCCCCCCCCCCCCCCCCCCCCCCCCCCCCCCCCCC
/* CCCCCCCCCCCCCCCCCCCCCCCCCCCCCCCCCCCCCCCCCCCCCCCCCCCCCCCCC
*  2011  4 16  4 30   .00000000                                                 
P  1  13465.837232  10151.972369 -20668.022213   -222.870903                    
V  1 -24024.250196   9779.949103 -10765.741296      -.025218                    
P  2 -14179.163042  -8323.688382 -20896.510652    331.089775                    
V  2   4580.746031 -26227.828331   6840.669738       .021863                    
P  3  24021.891952   9356.106363   6634.148189    702.593019                    
V  3   5680.576674   7702.310635 -29271.254571       .051928                    
P  4  -8222.709277 -19825.170110 -15625.909715     89.545858                    
V  4   5855.007879 -18959.674079  21603.265370       .104237                    
P  5 -23605.595713   -462.293442 -12288.284238   -145.357142                    
V  5  13721.141102  -7697.838681 -26003.906787      -.057942                    
P  6  22863.770907  13154.995679   4157.397780    691.573326                    
V  6   2074.901719   5708.617147 -30450.910653     -1.086304                    
P  7   5664.107377 -25786.904625  -1540.852671      8.282236                    
V  7   2168.378053   2386.924301 -32115.903050       .010167                    
P  8    153.735873 -24618.280550   9222.794074      7.722764                    
V  8   4826.101420 -10954.526569 -29921.114537       .000739                    
P  9 -13661.975614  14368.937292  17120.652421     74.087360                    
V  9   1903.597163 -22742.540203  19982.629795       .022816                    
P 10 -11827.431784 -11767.304702 -20950.474819    -71.697971                    
V 10  24426.329713  -9160.631466  -8364.750188      -.009404                    
P 11  13854.023582 -12755.676691  18292.340481   -143.041525                    
V 11   4514.675464  24012.405811  13451.493004      -.030522                    
P 12 -23500.993234  11388.228962  -4274.458854    -11.421582                    
V 12  -5996.683834   -518.327285  31555.495140       .027963                    
P 13   3079.443805 -16200.937026 -20952.073083    274.937470                    
V 13  19226.628265  17820.919514 -11082.833069      -.015009                    
P 14  13207.072856  21065.871039   9687.513609    144.181069                    
V 14  -9999.560651  -6875.136870  28915.006580       .023133                    
P 15 -18640.782093   2357.708882  18839.748961   -134.942667                    
V 15 -17760.277490 -16046.033125 -15406.399363       .028689                    
P 16  22810.575450   2143.320279 -13666.662550   -165.455874                    
V 16 -15846.843513   7021.758513 -24998.875668      -.027358                    
P 17 -13144.967185 -20954.988451  10107.464242    184.397607                    
V 17  10953.900107   6567.763190  28023.734210      -.001000                    
P 18  -5001.366616  17264.696367  19750.083746    132.092135                    
V 18 -23749.584432   6697.137066 -12431.912277       .019968                    
P 19  20150.144808   2761.421264  17263.572214   -130.906888                    
V 19  14474.400757  16366.027130 -19171.354036      -.038873                    
P 20  20769.545964 -14712.383702  -7624.598104     48.938782                    
V 20  10139.136108   -459.451183  29130.686750       .001103                    
P 21  -4222.498900  25878.705965    568.320938   -137.790669                    
V 21  -4238.793907   -491.027321 -31499.691559      -.026271                    
P 22   7142.416555  14338.106920  21359.534934    150.167446                    
V 22 -25279.751838   9031.970754   2305.049465      -.006923                    
P 23  14313.827134  -7176.751871 -21246.267266    313.008487                    
V 23  20212.640241  17759.377459   7282.041490      -.025917                    
P 24  14684.433817 -16109.347671  15039.549030    382.017637                    
V 24  -1812.593933  19211.571721  22708.725711       .031494                    
P 25 -13639.839162  16777.391863 -15425.586412     -1.165713                    
V 25 -18947.849508   5244.718242  22500.221226       .000603                    
P 26 -21603.069292 -11029.595120  10698.855138     -3.863994                    
V 26  -9204.398028 -11067.302068 -28030.453519      -.105089                    
P 27 -15122.871116   7591.252953  21051.606504    255.920028                    
V 27   2299.514915 -25174.310957  11389.101700       .036713                    
P 28  -2852.635320 -14978.001327  22252.975205     31.711336                    
V 28  25747.834895  -8105.089748  -2458.897312       .024775                    
P 29  -6354.898927  14326.516314 -21363.063816    200.161418                    
V 29 -20702.332724 -17831.919992  -5736.227155       .028359                    
P 30  17099.878113   7477.971766 -19318.467455    337.264748                    
V 30 -21326.202153  10326.822799 -15174.078338       .028665                    
P 31   8516.974278  18023.287249 -17238.752220     67.167300                    
V 31  -5475.833675  21702.626306  19958.377683       .051522                    
P 32  25342.304115  -7143.472735   -222.458666   -235.930231                    
V 32   1493.617172   3067.297286  31903.000005      -.073645                    
EOF
